*******************************************************************************
JPL/HORIZONS                172 Baucis (A877 CA)           2020-Jun-20 08:34:04
Rec #:     172 (+COV) Soln.date: 2020-May-20_01:00:13   # obs: 2401 (1882-2020)
 
IAU76/J2000 helio. ecliptic osc. elements (au, days, deg., period=Julian yrs):
 
  EPOCH=  2455848.5 ! 2011-Oct-14.00 (TDB)         Residual RMS= .33521
   EC= .1150619711074251   QR= 2.10648824771235    TP= 2455608.3424861669
   OM= 332.0252515271243   W=  359.7146313587794   IN= 10.02771284047159
   A= 2.380379392609493    MA= 64.4511958982978    ADIST= 2.654270537506637
   PER= 3.67263            N= .268370508           ANGMOM= .026363949
   DAN= 2.10649            DDN= 2.65427            L= 331.7442521
   B= -.0496877            MOID= 1.09572995        TP= 2011-Feb-15.8424861669
 
Asteroid physical parameters (km, seconds, rotational period in hours):
   GM= n.a.                RAD= 31.215             ROTPER= 27.417
   H= 8.7                  G= .150                 B-V= .890
                           ALBEDO= .1382           STYP= L
 
ASTEROID comments: 
1: soln ref.= JPL#74, OCC=0
2: source=ORB
*******************************************************************************
 
 
*******************************************************************************
Ephemeris / WWW_USER Sat Jun 20 08:34:04 2020 Pasadena, USA      / Horizons
*******************************************************************************
Target body name: 172 Baucis (A877 CA)            {source: JPL#74}
Center body name: Solar System Barycenter (0)     {source: DE431}
Center-site name: BODY CENTER
*******************************************************************************
Start time      : A.D. 1969-Jun-28 00:00:00.0000 TDB
Stop  time      : A.D. 2071-May-04 00:00:00.0000 TDB
Step-size       : 7200 minutes
*******************************************************************************
Center geodetic : 0.00000000,0.00000000,0.0000000 {E-lon(deg),Lat(deg),Alt(km)}
Center cylindric: 0.00000000,0.00000000,0.0000000 {E-lon(deg),Dxy(km),Dz(km)}
Center radii    : (undefined)                                                  
Small perturbers: Yes                             {source: SB431-N16}
Output units    : AU-D
Output type     : GEOMETRIC cartesian states
Output format   : 2 (position and velocity)
Reference frame : Ecliptic of J2000.0
*******************************************************************************
Initial IAU76/J2000 heliocentric ecliptic osculating elements (au, days, deg.):
  EPOCH=  2455848.5 ! 2011-Oct-14.00 (TDB)         Residual RMS= .33521        
   EC= .1150619711074251   QR= 2.10648824771235    TP= 2455608.3424861669      
   OM= 332.0252515271243   W=  359.7146313587794   IN= 10.02771284047159       
  Equivalent ICRF heliocentric equatorial cartesian coordinates (au, au/d):
   X= 1.493185529736470E+00  Y= 1.397955865709507E+00  Z= 1.029065346106095E+00
  VX=-7.857398318592121E-03 VY= 7.515454687936126E-03 VZ= 3.991914357795699E-03
Asteroid physical parameters (km, seconds, rotational period in hours):        
   GM= n.a.                RAD= 31.215             ROTPER= 27.417              
   H= 8.7                  G= .150                 B-V= .890                   
                           ALBEDO= .1382           STYP= L                     
*******************************************************************************
            JDTDB,            Calendar Date (TDB),        delta-T,                      X,                      Y,                      Z,                     VX,                     VY,                     VZ,
******************************************************************************************************************************************************************************************************************
$$SOE
2450200.500000000, A.D. 1996-Apr-27 00:00:00.0000,      62.185540,  1.549977306126554E+00, -1.424388023276845E+00, -9.600668804718251E-02,  8.155266501040266E-03,  9.181594474459898E-03,  2.110759738493071E-03,
2450205.500000000, A.D. 1996-May-02 00:00:00.0000,      62.185477,  1.590140456987011E+00, -1.377926512145522E+00, -8.541668170249934E-02,  7.908859714577731E-03,  9.401875022159428E-03,  2.124971540917720E-03,
2450210.500000000, A.D. 1996-May-07 00:00:00.0000,      62.185403,  1.629054756039923E+00, -1.330380836108632E+00, -7.475970265510225E-02,  7.655764994029597E-03,  9.615218045027841E-03,  2.137545414600012E-03,
2450215.500000000, A.D. 1996-May-12 00:00:00.0000,      62.185319,  1.666687361867911E+00, -1.281786310804365E+00, -6.404398956717221E-02,  7.396223626692225E-03,  9.821373933537145E-03,  2.148462165773662E-03,
2450220.500000000, A.D. 1996-May-17 00:00:00.0000,      62.185228,  1.703006668855576E+00, -1.232179475386856E+00, -5.327787080815303E-02,  7.130488559228255E-03,  1.002010300788625E-02,  2.157705116447456E-03,
2450225.500000000, A.D. 1996-May-22 00:00:00.0000,      62.185128,  1.737982364141851E+00, -1.181598041148739E+00, -4.246975171632784E-02,  6.858823851561744E-03,  1.021117620400039E-02,  2.165260166676103E-03,
2450230.500000000, A.D. 1996-May-27 00:00:00.0000,      62.185019,  1.771585481719394E+00, -1.130080836800009E+00, -3.162810157263000E-02,  6.581504082265256E-03,  1.039437572432664E-02,  2.171115847325273E-03,
2450235.500000000, A.D. 1996-Jun-01 00:00:00.0000,      62.184901,  1.803788453445710E+00, -1.077667750589367E+00, -2.076144033521414E-02,  6.298813708380683E-03,  1.056949564938659E-02,  2.175263362944263E-03,
2450240.500000000, A.D. 1996-Jun-06 00:00:00.0000,      62.184777,  1.834565156746296E+00, -1.024399669473915E+00, -9.878325185057209E-03,  6.011046382990454E-03,  1.073634250626230E-02,  2.177696624436271E-03,
2450245.500000000, A.D. 1996-Jun-11 00:00:00.0000,      62.184648,  1.863890958807453E+00, -9.703184155616057E-01,  1.012663065775959E-03,  5.718504234123092E-03,  1.089473579044380E-02,  2.178412271286790E-03,
2450250.500000000, A.D. 1996-Jun-16 00:00:00.0000,      62.184516,  1.891742757074613E+00, -9.154666800677964E-01,  1.190293365049606E-02,  5.421497108665960E-03,  1.104450843785298E-02,  2.177409683157458E-03,
2450255.500000000, A.D. 1996-Jun-21 00:00:00.0000,      62.184381,  1.918099015890482E+00, -8.598879550416053E-01,  2.278389955498610E-02,  5.120341785025092E-03,  1.118550724456176E-02,  2.174690980682312E-03,
2450260.500000000, A.D. 1996-Jun-26 00:00:00.0000,      62.184241,  1.942939799127202E+00, -8.036264631279626E-01,  3.364699120202456E-02,  4.815361158909710E-03,  1.131759323257035E-02,  2.170261015411503E-03,
2450265.500000000, A.D. 1996-Jul-01 00:00:00.0000,      62.184099,  1.966246798691936E+00, -7.467270856387058E-01,  4.448367005847915E-02,  4.506883407970724E-03,  1.144064196008784E-02,  2.164127349117526E-03,
2450270.500000000, A.D. 1996-Jul-06 00:00:00.0000,      62.183955,  1.988003358815999E+00, -6.892352892159943E-01,  5.528544211334106E-02,  4.195241141559359E-03,  1.155454377384947E-02,  2.156300222898806E-03,
2450275.500000000, A.D. 1996-Jul-11 00:00:00.0000,      62.183814,  2.008194496066078E+00, -6.311970513844583E-01,  6.604387117649872E-02,  3.880770540435074E-03,  1.165920400100908E-02,  2.146792516404354E-03,
2450280.500000000, A.D. 1996-Jul-16 00:00:00.0000,      62.183675,  2.026806915035774E+00, -5.726587852967464E-01,  7.675059194920679E-02,  3.563810489697661E-03,  1.175454307996133E-02,  2.135619697304489E-03,
2450285.500000000, A.D. 1996-Jul-21 00:00:00.0000,      62.183538,  2.043829019692228E+00, -5.136672639758236E-01,  8.739732281792119E-02,  3.244701708637208E-03,  1.184049663099764E-02,  2.122799761226041E-03,
2450290.500000000, A.D. 1996-Jul-26 00:00:00.0000,      62.183403,  2.059250920374723E+00, -4.542695443527398E-01,  9.797587832491358E-02,  2.923785882574172E-03,  1.191701546752603E-02,  2.108353162618327E-03,
2450295.500000000, A.D. 1996-Jul-31 00:00:00.0000,      62.183271,  2.073064436468140E+00, -3.945128913960858E-01,  1.084781812715902E-01,  2.601404801718077E-03,  1.198406554828641E-02,  2.092302737039582E-03,
2450300.500000000, A.D. 1996-Aug-05 00:00:00.0000,      62.183144,  2.085263094797085E+00, -3.344447026256034E-01,  1.188962744125910E-01,  2.277899511235502E-03,  1.204162787177525E-02,  2.074673615240977E-03,
2450305.500000000, A.D. 1996-Aug-10 00:00:00.0000,      62.183025,  2.095842123806756E+00, -2.741124332935238E-01,  1.292223317006009E-01,  1.953609476595472E-03,  1.208969831518100E-02,  2.055493129446740E-03,
2450310.500000000, A.D. 1996-Aug-15 00:00:00.0000,      62.182913,  2.104798443618240E+00, -2.135635225039963E-01,  1.394486690442692E-01,  1.628871768818454E-03,  1.212828742070403E-02,  2.034790712445621E-03,
2450315.500000000, A.D. 1996-Aug-20 00:00:00.0000,      62.182809,  2.112130652070506E+00, -1.528453205265236E-01,  1.495677545454713E-01,  1.304020274786369E-03,  1.215742013206925E-02,  2.012597790410839E-03,
2450320.500000000, A.D. 1996-Aug-25 00:00:00.0000,      62.182712,  2.117839006887215E+00, -9.200501754635641E-02,  1.595722181873025E-01,  9.793849376350176E-04,  1.217713548358233E-02,  1.988947670565156E-03,
2450325.500000000, A.D. 1996-Aug-30 00:00:00.0000,      62.182623,  2.121925404129529E+00, -3.108957408397491E-02,  1.694548609498178E-01,  6.552910313523206E-04,  1.218748624378197E-02,  1.963875424782397E-03,
2450330.500000000, A.D. 1996-Sep-04 00:00:00.0000,      62.182544,  2.124393353113788E+00,  2.985434669475125E-02,  1.792086633355394E-01,  3.320584725207485E-04,  1.218853851592990E-02,  1.937417770022765E-03,
2450335.500000000, A.D. 1996-Sep-09 00:00:00.0000,      62.182477,  2.125247947985017E+00,  9.078044456865846E-02,  1.888267932906694E-01,  1.000117118947532E-05,  1.218037129814448E-02,  1.909612946277279E-03,
